[{"OBJECT_NAME":"TDRS 3","OBJECT_ID":"1988-091B","EPOCH":"2026-02-26T20:18:23.173920","MEAN_MOTION":1.00261626,"ECCENTRICITY":0.0044225,"INCLINATION":12.6852,"RA_OF_ASC_NODE":341.7287,"ARG_OF_PERICENTER":351.9002,"MEAN_ANOMALY":78.3575,"EPHEMERIS_TYPE":0,"CLASSIFICATION_TYPE":"U","NORAD_CAT_ID":19548,"ELEMENT_SET_NO":999,"REV_AT_EPOCH":12428,"BSTAR":0,"MEAN_MOTION_DOT":-3.06e-6,"MEAN_MOTION_DDOT":0},{"OBJECT_NAME":"HST","OBJECT_ID":"1990-037B","EPOCH":"2026-03-03T10:01:15.222720","MEAN_MOTION":15.29363841,"ECCENTRICITY":0.00016951,"INCLINATION":28.4702,"RA_OF_ASC_NODE":82.7831,"ARG_OF_PERICENTER":63.3001,"MEAN_ANOMALY":296.7768,"EPHEMERIS_TYPE":0,"CLASSIFICATION_TYPE":"U","NORAD_CAT_ID":20580,"ELEMENT_SET_NO":999,"REV_AT_EPOCH":77235,"BSTAR":0.00029940291,"MEAN_MOTION_DOT":9.009e-5,"MEAN_MOTION_DDOT":0},{"OBJECT_NAME":"TDRS 5","OBJECT_ID":"1991-054B","EPOCH":"2026-03-03T17:31:16.092768","MEAN_MOTION":1.00266106,"ECCENTRICITY":0.0010909,"INCLINATION":14.0842,"RA_OF_ASC_NODE":354.5584,"ARG_OF_PERICENTER":277.5233,"MEAN_ANOMALY":344.7078,"EPHEMERIS_TYPE":0,"CLASSIFICATION_TYPE":"U","NORAD_CAT_ID":21639,"ELEMENT_SET_NO":999,"REV_AT_EPOCH":12665,"BSTAR":0,"MEAN_MOTION_DOT":7.6e-7,"MEAN_MOTION_DDOT":0},{"OBJECT_NAME":"TDRS 6","OBJECT_ID":"1993-003B","EPOCH":"2026-03-03T07:14:57.335136","MEAN_MOTION":1.00279152,"ECCENTRICITY":0.00055855,"INCLINATION":14.1806,"RA_OF_ASC_NODE":357.8429,"ARG_OF_PERICENTER":201.1788,"MEAN_ANOMALY":24.7869,"EPHEMERIS_TYPE":0,"CLASSIFICATION_TYPE":"U","NORAD_CAT_ID":22314,"ELEMENT_SET_NO":999,"REV_AT_EPOCH":12134,"BSTAR":0,"MEAN_MOTION_DOT":-3.04e-6,"MEAN_MOTION_DDOT":0},{"OBJECT_NAME":"TDRS 7","OBJECT_ID":"1995-035B","EPOCH":"2026-03-03T17:18:29.693664","MEAN_MOTION":1.00276681,"ECCENTRICITY":0.0008159,"INCLINATION":13.4207,"RA_OF_ASC_NODE":348.9131,"ARG_OF_PERICENTER":47.3286,"MEAN_ANOMALY":113.8671,"EPHEMERIS_TYPE":0,"CLASSIFICATION_TYPE":"U","NORAD_CAT_ID":23613,"ELEMENT_SET_NO":999,"REV_AT_EPOCH":11219,"BSTAR":0,"MEAN_MOTION_DOT":-2.47e-6,"MEAN_MOTION_DDOT":0},{"OBJECT_NAME":"ISS (ZARYA)","OBJECT_ID":"1998-067A","EPOCH":"2026-03-03T18:28:10.188768","MEAN_MOTION":15.48425902,"ECCENTRICITY":0.0008204,"INCLINATION":51.6317,"RA_OF_ASC_NODE":101.625,"ARG_OF_PERICENTER":153.6152,"MEAN_ANOMALY":206.5256,"EPHEMERIS_TYPE":0,"CLASSIFICATION_TYPE":"U","NORAD_CAT_ID":25544,"ELEMENT_SET_NO":999,"REV_AT_EPOCH":55541,"BSTAR":0.00019358,"MEAN_MOTION_DOT":0.00010027,"MEAN_MOTION_DDOT":0},{"OBJECT_NAME":"TERRA","OBJECT_ID":"1999-068A","EPOCH":"2026-03-03T18:11:52.490688","MEAN_MOTION":14.61007359,"ECCENTRICITY":0.0002299,"INCLINATION":97.9606,"RA_OF_ASC_NODE":116.4193,"ARG_OF_PERICENTER":165.972,"MEAN_ANOMALY":262.2336,"EPHEMERIS_TYPE":0,"CLASSIFICATION_TYPE":"U","NORAD_CAT_ID":25994,"ELEMENT_SET_NO":999,"REV_AT_EPOCH":39421,"BSTAR":0.00012797,"MEAN_MOTION_DOT":5.83e-6,"MEAN_MOTION_DDOT":0},{"OBJECT_NAME":"TDRS 8","OBJECT_ID":"2000-034A","EPOCH":"2026-03-03T13:55:16.243104","MEAN_MOTION":1.00276661,"ECCENTRICITY":0.0006149,"INCLINATION":12.5175,"RA_OF_ASC_NODE":32.2023,"ARG_OF_PERICENTER":307.5076,"MEAN_ANOMALY":115.1963,"EPHEMERIS_TYPE":0,"CLASSIFICATION_TYPE":"U","NORAD_CAT_ID":26388,"ELEMENT_SET_NO":999,"REV_AT_EPOCH":9412,"BSTAR":0,"MEAN_MOTION_DOT":-2.04e-6,"MEAN_MOTION_DDOT":0},{"OBJECT_NAME":"TIMED","OBJECT_ID":"2001-055B","EPOCH":"2026-03-03T11:44:57.285024","MEAN_MOTION":14.94999138,"ECCENTRICITY":0.00029602,"INCLINATION":74.066,"RA_OF_ASC_NODE":87.7998,"ARG_OF_PERICENTER":282.5183,"MEAN_ANOMALY":77.567,"EPHEMERIS_TYPE":0,"CLASSIFICATION_TYPE":"U","NORAD_CAT_ID":26998,"ELEMENT_SET_NO":999,"REV_AT_EPOCH":31502,"BSTAR":0.00015737976,"MEAN_MOTION_DOT":1.682e-5,"MEAN_MOTION_DDOT":0},{"OBJECT_NAME":"AQUA","OBJECT_ID":"2002-022A","EPOCH":"2026-03-03T20:40:01.104096","MEAN_MOTION":14.61960134,"ECCENTRICITY":6.51e-5,"INCLINATION":98.4164,"RA_OF_ASC_NODE":30.1204,"ARG_OF_PERICENTER":58.3918,"MEAN_ANOMALY":331.584,"EPHEMERIS_TYPE":0,"CLASSIFICATION_TYPE":"U","NORAD_CAT_ID":27424,"ELEMENT_SET_NO":999,"REV_AT_EPOCH":26788,"BSTAR":0.00029557,"MEAN_MOTION_DOT":1.431e-5,"MEAN_MOTION_DDOT":0},{"OBJECT_NAME":"SORCE","OBJECT_ID":"2003-004A","EPOCH":"2026-03-03T15:40:11.238240","MEAN_MOTION":15.03042744,"ECCENTRICITY":0.0016677,"INCLINATION":39.9905,"RA_OF_ASC_NODE":143.5088,"ARG_OF_PERICENTER":9.7243,"MEAN_ANOMALY":350.3871,"EPHEMERIS_TYPE":0,"CLASSIFICATION_TYPE":"U","NORAD_CAT_ID":27651,"ELEMENT_SET_NO":999,"REV_AT_EPOCH":25601,"BSTAR":0.00035208,"MEAN_MOTION_DOT":4.692e-5,"MEAN_MOTION_DDOT":0},{"OBJECT_NAME":"AURA","OBJECT_ID":"2004-026A","EPOCH":"2026-03-03T19:23:06.806688","MEAN_MOTION":14.61132287,"ECCENTRICITY":0.0001021,"INCLINATION":98.3301,"RA_OF_ASC_NODE":18.4728,"ARG_OF_PERICENTER":78.2308,"MEAN_ANOMALY":281.9007,"EPHEMERIS_TYPE":0,"CLASSIFICATION_TYPE":"U","NORAD_CAT_ID":28376,"ELEMENT_SET_NO":999,"REV_AT_EPOCH":15082,"BSTAR":0.00029121,"MEAN_MOTION_DOT":1.384e-5,"MEAN_MOTION_DDOT":0},{"OBJECT_NAME":"SWIFT","OBJECT_ID":"2004-047A","EPOCH":"2026-03-03T18:52:23.503296","MEAN_MOTION":15.58696064,"ECCENTRICITY":0.000313,"INCLINATION":20.5532,"RA_OF_ASC_NODE":272.1083,"ARG_OF_PERICENTER":317.0945,"MEAN_ANOMALY":42.9255,"EPHEMERIS_TYPE":0,"CLASSIFICATION_TYPE":"U","NORAD_CAT_ID":28485,"ELEMENT_SET_NO":999,"REV_AT_EPOCH":17034,"BSTAR":0.000643,"MEAN_MOTION_DOT":0.00052726,"MEAN_MOTION_DDOT":0},{"OBJECT_NAME":"THEMIS A","OBJECT_ID":"2007-004A","EPOCH":"2026-03-02T20:30:45.615168","MEAN_MOTION":0.87846918,"ECCENTRICITY":0.840632,"INCLINATION":6.7094,"RA_OF_ASC_NODE":120.4987,"ARG_OF_PERICENTER":176.923,"MEAN_ANOMALY":199.0492,"EPHEMERIS_TYPE":0,"CLASSIFICATION_TYPE":"U","NORAD_CAT_ID":30580,"ELEMENT_SET_NO":999,"REV_AT_EPOCH":4034,"BSTAR":-0.0051588,"MEAN_MOTION_DOT":-1.57e-6,"MEAN_MOTION_DDOT":0},{"OBJECT_NAME":"THEMIS D","OBJECT_ID":"2007-004D","EPOCH":"2026-03-03T19:17:15.809280","MEAN_MOTION":0.87835941,"ECCENTRICITY":0.8358881,"INCLINATION":6.5948,"RA_OF_ASC_NODE":84.7614,"ARG_OF_PERICENTER":215.5864,"MEAN_ANOMALY":126.5023,"EPHEMERIS_TYPE":0,"CLASSIFICATION_TYPE":"U","NORAD_CAT_ID":30797,"ELEMENT_SET_NO":999,"REV_AT_EPOCH":4015,"BSTAR":0,"MEAN_MOTION_DOT":-2.21e-6,"MEAN_MOTION_DDOT":0},{"OBJECT_NAME":"THEMIS E","OBJECT_ID":"2007-004E","EPOCH":"2026-03-03T16:04:26.787936","MEAN_MOTION":0.87837692,"ECCENTRICITY":0.8362885,"INCLINATION":4.1121,"RA_OF_ASC_NODE":99.9525,"ARG_OF_PERICENTER":201.3265,"MEAN_ANOMALY":98.5411,"EPHEMERIS_TYPE":0,"CLASSIFICATION_TYPE":"U","NORAD_CAT_ID":30798,"ELEMENT_SET_NO":999,"REV_AT_EPOCH":6499,"BSTAR":0,"MEAN_MOTION_DOT":-2.21e-6,"MEAN_MOTION_DDOT":0},{"OBJECT_NAME":"FGRST (GLAST)","OBJECT_ID":"2008-029A","EPOCH":"2026-03-03T17:19:41.691648","MEAN_MOTION":15.23274978,"ECCENTRICITY":0.0008499,"INCLINATION":25.5812,"RA_OF_ASC_NODE":216.4397,"ARG_OF_PERICENTER":158.238,"MEAN_ANOMALY":201.852,"EPHEMERIS_TYPE":0,"CLASSIFICATION_TYPE":"U","NORAD_CAT_ID":33053,"ELEMENT_SET_NO":999,"REV_AT_EPOCH":97973,"BSTAR":0.00019841,"MEAN_MOTION_DOT":5.181e-5,"MEAN_MOTION_DDOT":0}]
